OrderId,City,CountryCode,PostalCode,StateOrRegion
701-6477673-0251451,OTTAWA,CA,K1K 3B1,Ontario
701-7408780-7578624,Olds,CA,T4H 0B5,Alberta
701-0527221-1158612,St-Jerome,CA,J7Y 1B1,Quebec
701-5368572-3234667,Sherwood Park,CA,T8H 2T6,Alberta
702-5140175-5592258,Westmount,CA,H3Y2S5,Quebec
702-4718163-4654663,Clyde River,CA,C0A 1H3,Prince Edward Island
701-4642740-4721837,Surrey,CA,V3S1M1,British Columbia
702-4243976-8358658,Mont-Royal,CA,H3S 1A3,Quebec
701-2110397-4373061,Swift Current,CA,S9H 0L3,Saskatchewan
701-5393727-7141049,Toronto,CA,M6S 3E7,Ontario
702-2342637-0637863,Drummondville,CA,J2C 5B2,Quebec
701-0992025-2875461,Dollard-Des-Ormeaux,CA,H9A 2M4,Quebec
702-0743705-3817817,Udora,CA,L0C1L0,Ontario
701-7210486-8433828,London,CA,N6G 0R2,Ontario
701-9803846-1605023,Magog,CA,J1X 4W6,Quebec
702-7644275-1782604,Unionbay,CA,V0R3B0,British Columbia
702-3964192-1745065,"Escuminac, Canada",CA,G0C 1N0,Quebec
701-3244481-9740247,Scarborough,CA,M1P 2H6,ON
701-2283303-4973847,markham,CA,L3S 3V6,Ontario
702-7264734-3268227,Kingston,CA,K7P 2W4,ON
702-4851036-3057822,Marieville,CA,J3M 1E1,Quebec
702-3278402-5230669,Cayuga,CA,N0A 1E0,Ontario
701-6410697-0510629,Amherstview,CA,K7N 1P9,Ontario
701-1873120-5220208,Killam,CA,T0B 2L0,Alberta
701-5469566-7900215,Chilliwack,CA,V2P 6H3,British Columbia
702-2740774-8248254,Cambridge,CA,N1S 4Y9,Ontario
702-2628643-5618604,London,CA,N6H 4N9,ON
701-1300052-6432269,North York,CA,M3B 1L3,Ontario
701-0817122-4681821,St. Catharines,CA,L2R 2S1,Ontario
701-9248241-8686630,North York,CA,M3B 1L3,Ontario
702-9129683-4177063,Sainte-Brigitte-de-Laval,CA,G0A 3K0,Quebec
701-2477480-2355412,SPIRIT RIVER,CA,T0H 3G0,AB
701-7111592-6783446,Montreal,CA,H1T 1H9,Quebec
701-3699037-9919459,Victoria,CA,V8Y 1H2,British Columbia
701-7293928-6546641,Ottawa,CA,K2C 3P4,Ontario
701-8140740-1465857,Smiths Falls,CA,K7A 3G3,Ontario
701-3420159-6376239,Ear falls,CA,P0V 1T0,Ontario
702-4821119-7066613,LES ESCOUMINS,CA,G0T 1K0,QUEBEC
701-8894988-6558611,Courtice,CA,L1E 0C3,Ontario
702-8909083-5491448,Vernon,CA,V1T3E5,BC
702-9257623-0097802,Huntingdon,CA,J0S 1H0,Quebec
702-4043259-6824216,Port Coquitlam,CA,V3B 7Y9,British Columbia
701-2538381-0395417,Laval,CA,H7N 3N3,Quebec
701-8251070-0301866,"Manitouwadge,",CA,P0T 2C0,Ontario
702-3814610-0365851,Coaldale,CA,T1M 1C9,AB
702-2262276-6072235,Fort McMurray,CA,T9K 1M4,Alberta
701-3946872-3953828,London,CA,N5W 5T2,Ontario
702-8913609-4105043,Penetanguishene,CA,L9M 1N8,Ontario
702-2617921-0185850,Saint-Laurent,CA,H4M 2K1,Quebec
701-0317858-4802607,Nepean,CA,K2G 4P6,Ontario
702-2611723-2109053,Stoneham-Et-Tewkesbury,CA,G3C 0L6,Quebec
702-6176490-2212251,Stratford,CA,N5A 7Y3,ON
702-2407626-9402620,Montreal,CA,H1X 2R8,Quebec
702-4871810-8693854,Alma,CA,G8C 0B3,Quebec
702-7514051-8664247,RICHMOND HILL,CA,L4S 2B9,Ontario
702-2828795-9531441,Vercheres,CA,J0L 0A3,Quebec
701-3503503-6477013,Granby,CA,J2H 0Z6,Quebec
702-3564682-8585068,Uxbridge,CA,L9P 1R9,Ontario
701-4987183-9269824,Coquitlam,CA,V3B 7P2,British Columbia
701-5303135-5610638,Vancouver,CA,V5V 4H4,British Columbia
701-2242614-1571451,Oshawa,CA,L1J 8M9,Ontario
701-6207697-4866608,Kitchener,CA,N2A 1P7,Ontario
702-9028170-0124208,London,CA,N6K 2K7,Ontario
701-7468548-1174637,HÃ©rouxville,CA,G0X 1J0,QuÃ©bec
701-0811782-6688204,Courtenay,CA,V9N 8M7,British Columbia
702-9678808-1401064,Toronto,CA,M6R 2C4,ON
701-7978354-3068200,Cochrane,CA,P0L 1C0,Ontario
702-0146377-5558671,Godfrey,CA,K0H 1T0,Ontario
701-8863808-2805052,Stoney Creek,CA,L8J 3P4,Ontario
702-3904594-3798634,Castlegar,CA,V1N 1P5,British Columbia
702-8268414-7561838,cap-chat,CA,G0J 1E0,Quebec
701-5829306-3362649,North Vancouver,CA,V7R 1M9,British Columbia
701-4351037-1270640,Kanata,CA,K2M 0E7,Ontario
701-9644661-5096266,CÃ´te Saint-Luc,CA,H4W 2G8,QuÃ©bec
702-7271350-4501807,kelowna,CA,V1W 4C8,British Columbia
702-8831399-4153034,North York,CA,M3B 3E2,Ontario
701-5936370-6833034,Surrey,CA,V4N 4M9,British Columbia
701-5576052-4913000,Okotoks,CA,T1S 1M2,Alberta
701-8505758-4817035,Saint-Leonard,CA,H1S 2X8,Quebec
701-7454521-6773864,Vancouver,CA,V6R 2P5,British Columbia
702-9448709-9745040,Burnaby,CA,V5C 6T6,British Columbia
702-6105953-9209808,Boischatel,CA,G0A 1H0,Quebec
701-3061337-4297004,Roblin,CA,K0K 2W0,Ontario
701-8427649-0496259,Okotoks,CA,T1S 2N1,Alberta
702-9185809-1991433,Elkford,CA,V0B 1H0,British Columbia
702-6708408-7466618,Stratford,CA,C1B 0B8,Prince Edward Island
702-1950084-9185840,North Vancouver,CA,V7M 2J5,BC
702-0410320-4600256,North York,CA,M3A1S6,Ontario
701-1465779-0086635,Chilliwack,CA,V2R 0J9,British Columbia
702-0444204-9757851,Surrey,CA,V3Z 6Z2,BC
701-2640594-5285830,Ancaster,CA,L9K 1C1,Ontario
701-2867675-6535463,Burnaby,CA,V5C 2Y7,British Columbia
701-3006397-8015415,Lord's Cove,CA,E5V 1J7,New Brunswick
701-5659450-5353026,MONTREAL,CA,H2L 2E0,QC
701-1946429-4223439,Toronto,CA,M1W 3M1,Ontario
702-8402776-7440226,Toronto,CA,M4B 3C8,Ontario
702-3676662-7789861,St Claude,CA,R0G 1Z0,Manitoba
702-1767579-0465024,Victoria,CA,V9C 3L9,British Columbia
701-3969045-1070657,Surrey,CA,V3X 0G6,British Columbia
702-3934393-3851424,Mississauga,CA,L5M 0L2,Ontario
702-5143252-0090652,Toronto,CA,M5V 0J8,Ontario
701-3896351-9507400,Outremont,CA,H2V4B3,QC
702-7583601-9335443,St-henri de levis,CA,G0R 3E0,Quebec
702-5136285-5277038,Vancouver,CA,V6R 1L7,British Columbia
701-9536154-7143450,Moose Jaw,CA,S6H 4L5,Saskatchewan
702-7251285-8288234,Vancouver,CA,V5K 3A2,British Columbia
702-4220619-4417847,Odessa,CA,K0H 2H0,Ontario
701-8165737-4035411,Coquitlam,CA,V3K 3A5,British Columbia
701-8279745-7481011,Lasalle,CA,H8P 1P4,Quebec
702-3163136-7749017,burlington,CA,L7T 1E4,Ontario
701-8268613-3567437,Delta,CA,V4K 5E8,British Columbia
702-0004702-5073836,Kenaston,CA,S0G 2N0,SK
702-7869657-6500258,Tillsonburg,CA,N4G 1C3,Ontario
701-5187407-0967425,Mississauga,CA,L5M7L4,Ontario
702-8418759-1849015,Dorval,CA,H9S5J7,Quebec
701-9521866-0343458,La Prairie,CA,J5R 6B8,Quebec
702-0090719-2381072,Maple,CA,L6A5A4,Ontario
702-0360812-3013862,100 Mile House,CA,V0K 2E0,British Columbia
702-1595195-6493867,Hammonds Plains,CA,B4B 1Y7,Nova Scotia
701-5852033-6784237,Surrey,CA,V4N 0J8,BC
702-7526807-7949001,Toronto,CA,M3C 1R7,Ontario
701-5680471-7565836,Toronto,CA,M4K 1J2,Ontario
702-7516401-4912230,Lawrencetown,CA,B2Z 1L5,Nova Scotia
702-3904389-4807417,Edmonton,CA,T5X 4T6,Alberta
702-8351319-0160259,Blackfalds,CA,T0M 0J0,Alberta
702-4666017-9180217,Edmonton,CA,T5R0M5,Alberta
701-3549675-9721017,Nisku,CA,T9E 7M4,Alberta
701-3942929-2969845,Winnipeg,CA,R2G 0N1,Manitoba
702-4478966-9815459,St Catharines,CA,L2N 6X1,Ontario
701-2494572-8833065,Merrickville,CA,K0G 1N0,Ontario
702-2853525-7015413,Bethany,CA,L0A 1A0,Ontario
701-4398132-8461046,Rouyn-Noranda,CA,J9Y 0H7,Quebec
701-2247934-6922649,North York,CA,M2H 1E9,Ontario
701-6774763-3119401,Fort St. John,CA,V1J 4A9,British Columbia
702-3642535-7236237,Etobicoke,CA,M8V 3G6,Ontario
702-9230846-4861827,Ajax,CA,L1S 4E5,Ontario
702-8829636-2218616,Kenora,CA,P9N 3K5,Ontario
701-8735903-5697804,Barrie,CA,L4N 9H6,Ontario
701-5485054-2664222,Kingsville,CA,N9Y 1J3,Ontario
701-9672037-2851428,Pierrefonds,CA,H8Y 3P2,Quebec
702-1977736-6812248,Squamish,CA,V8B 0C2,British Columbia
702-1695292-2258628,Verdun,CA,H4G 2R4,Quebec
701-3311682-5197027,Buck Lake,CA,T0C0T0,Alberta
702-3218139-1278601,Laval,CA,H7W 1Y7,QC
701-7316943-6225856,Hampden,CA,A0K 2Y0,Newfoundland
702-1033844-8509057,Ottawa,CA,K1Y3X8,Ontario
702-3420949-9505822,Tillsonburg,CA,N4G 4G8,Ontario
701-0024784-0020276,Roland,CA,R0G 1T0,MB
701-5121943-3390606,Abbotsford,CA,V2S4W4,BC
702-1989733-9346662,Edmonton,CA,T6W 1E9,Alberta
701-9877379-1615442,Freetown,CA,C0B 1M0,Prince Edward Island
701-4615540-3647458,Strathmore,CA,T1P 1Z1,Alberta
701-6521191-4242635,Waterloo,CA,N2T2T4,ON
702-9290830-7705027,Lindsay,CA,K9V 4R6,Ontario
701-7395089-2468222,High Prairie,CA,T0G 1E0,Alberta
702-6966870-9377006,Whitehorse,CA,Y1A 6B3,Yukon
702-0493871-8246649,Airdrie,CA,T4B 2W9,Alberta
702-7229052-1128256,Calgary,CA,T2E 5N8,Alberta
701-6299861-7055422,Shawinigan,CA,G9T5K5,QC
702-1647859-5503459,Brampton,CA,L6W 1G1,Ontario
701-9864332-2959406,Edmonton,CA,T6W 2A2,Alberta
701-3804203-4209000,Chilliwack,CA,V2P 8B8,BC
702-9519661-3342661,Red Deer,CA,T4N 5G1,Alberta
702-4822440-1120209,Langton,CA,N0E 1G0,ON
702-7102467-1925037,Surrey,CA,V3S 1R8,BC
702-1499732-6961010,Forest,CA,N0N 1J0,Ontario
701-1730384-7887422,Richmond,CA,V6Y 1K3,British Columbia
701-3520741-3823449,Vavenby,CA,V0E 3A0,BC
701-5372995-4547464,NORTH VANCOUVER,CA,V7P 1T0,BC
702-3353221-5388241,Dollard-Des-Ormeaux,CA,H9G 1W4,Quebec
701-6292300-3849853,St. Thomas,CA,N5R 4Y8,Ontario
701-3573298-5121063,Rimouski,CA,G5L 1W6,Quebec
702-1373471-4245801,Glencairn,CA,L0M 1K0,Ontario
701-0684694-8659426,Vancouver,CA,V6Z 3A4,British Columbia
701-1846887-9567459,Kleinburg,CA,L4H4H9,Ontario
701-9683488-2727444,La Crete,CA,T0H 2H0,Alberta
701-1560243-8481856,Moncton,CA,E1A 6P2,New Brunswick
702-8322839-3667456,Warman,CA,S0K 4S2,Saskatchewan
701-1748718-0777821,Salt Spring Island,CA,V8K 1X1,B. C.
701-6122994-5360226,Keewatin,CA,P0X 1C0,Ontario
702-9337593-7644257,Hanmer,CA,P3P 1B4,Ontario
701-9878936-9717804,Notre-Dame-Des-Prairies,CA,J6E 0V1,Quebec
701-0769105-7137822,Toronto,CA,M6S 1N6,ON
701-8233798-8937852,Sault Ste. Marie,CA,P6C 2R3,Ontario
702-2899471-4517053,Regina,CA,S4S 5L4,SK
701-6177689-1315413,Keswick,CA,L4P 4A2,Ontario
701-9692382-4057816,Crowes Mills,CA,B6L 5J3,Nova Scotia
702-1204285-8018617,PORT COQUITLAM,CA,V3B 7R2,BC
701-4810225-4397042,Barrie,CA,L4N 8S8,Ontario
701-6059300-6700261,Wawa,CA,P0S1K0,ON
701-1402092-6229817,Lloydminster,CA,T9V 0J8,Alberta
701-4819456-4110636,Sudbury,CA,P3E 5N4,Ontario
701-3512375-3417811,Fort McMurray,CA,T9K 2H9,Alberta
702-2618173-9944255,Cottam,CA,N0R 1B0,Ontario
702-5783691-2856215,Lethbridge County,CA,T1J 5R9,Alberta
702-0684508-1671414,Tappen,CA,V0E 2X3,British Columbia
702-0693996-4066605,Tillsonburg,CA,N4G 1N5,Ontario
702-2486328-9361837,Gander,CA,A1V 1M2,Newfoundland
701-4378905-2665019,Ste. Anne,CA,R5H 1R1,Manitoba
702-9713484-2249824,Edmonton,CA,T6A 0Z7,Alberta
702-5332975-5189830,Shoal Lake,CA,R0J 1Z0,Manitoba
702-8120693-7960203,Charlottetown,CA,C1A 7N8,Prince Edward Island
702-7553718-6380267,Cloyne,CA,K0H 1K0,Ontario
701-3362771-9288259,Angus,CA,L0M 1B3,Ontario
702-3677592-2430664,Vaughan,CA,L6A0N7,Ontario
702-3146702-4786650,Calgary,CA,T2K 1Z2,Alberta
702-9963137-3181829,North Vancouver,CA,V7M 1L7,British Columbia
702-9122073-6669011,Edmonton,CA,T5N 2G2,Alberta
701-9212803-4512240,Barrie,CA,L4M 6W4,ON
701-8351280-0253032,Meaford,CA,N4L 1W7,Ontario
702-4398974-2402621,Springside,CA,S0A 3V0,Saskatchewan
701-6951195-9030615,Boucherville,CA,J4B 8V8,Quebec
702-5316250-7732225,Barrie,CA,L4N 4N8,Ontario
701-6289570-9196237,Antigonish,CA,B2G 2K1,Nova Scotia
701-8590871-1535426,Boischatel,CA,G0A 1H0,Quebec
702-3674165-4243469,Surrey,CA,V3R 8P8,British Columbia
702-4079127-7997024,Elmira,CA,N3B3H9,ON
702-4852546-9977062,Amherst,CA,B4H 4J3,Nova Scotia
702-8409941-7893812,Stellarton,CA,B0K 1S0,Nova Scotia
702-8940617-7903436,Elmsdale,CA,B2S1C9,NS
701-5066073-0569857,Campbell River,CA,V9W 7J9,British Columbia
701-0656257-4169843,Kitchener,CA,N2G 1M2,Ontario
701-1152921-1709833,Montreal,CA,H2E2P4,QuÃ©bec
701-5196129-3197804,North Bay,CA,P1B 1G2,Ontario
702-7096044-2093869,Toronto,CA,M5J 2Y2,Ontario
702-6061546-1668264,Port Severn,CA,L0K 1S0,Ontario
701-6702886-8472210,Vancouver,CA,V5N 1S1,British Columbia
701-0080203-0833017,North Vancouver,CA,V7K 1S4,BC
702-0824838-0989005,Fredericton,CA,E3A 1P5,New Brunswick
701-7617836-4601035,Langley,CA,V1M 2J6,BC
702-7074586-1110668,Calgary,CA,T3K 0S8,AB
702-2418754-1636232,Cayuga,CA,N0A 1E0,Ontario
701-9573455-6446665,Whitehorse,CA,Y1A 5Y2,Yukon
702-5113603-5371408,Mermaid,CA,C1B 3E5,Prince Edward Island
702-0711550-5832256,Beeton,CA,L0G 1A0,Ontario
702-8183520-4977861,London,CA,N5V 1A6,Ontario
701-5979262-4630612,Innerkip,CA,N0J 1M0,Ontario
702-6761158-5799440,Rouyn-Noranda,CA,J9Y 0K9,Quebec
702-4966014-0569063,Edmonton,CA,T5E 4C7,Alberta
701-5339854-6685043,Oshawa,CA,L1G 7E6,Ontario
701-8212774-9847422,Wheatley,CA,N0P2P0,Ontario
701-3562766-2373034,Ucluelet,CA,V0R 3A0,BC
702-6137116-5409821,Waterville,CA,B0P 1V0,Nova Scotia
701-8667473-3937026,Lower Post,CA,V0C 1W0,BC
701-2992779-3061007,Steinbach,CA,R5G 2A8,Manitoba
701-9614622-1592200,Mill Bay,CA,V0R 2P1,British Columbia
701-8905066-1845859,Bowmanville,CA,L1C 5G1,Ontario
701-3376157-6101835,North Vancouver,CA,V7K 2L6,British Columbia
701-5407883-7697013,Port Sydney,CA,P0B 1L0,Ontario
701-2652839-2616256,Glenavon,CA,S0G 1Y0,Saskatchewan
702-3178561-2829816,Calgary,CA,T2Y 4R1,Alberta
702-0550115-9297861,Abbotsford,CA,V2T1V3,British Columbia
702-5000949-7745069,La Broquerie,CA,R0A 0W3,MB
701-8945678-4381048,St Andrews West,CA,K0C 2A0,Ontario
701-3974135-4920239,CALGARY,CA,T2Z 2R8,ALBERTA
701-7579987-4038603,Varennes,CA,J3X 1J9,Quebec
702-6338490-5019402,Kanata,CA,K2K 2J8,Ontario
701-9734295-5042627,Corbeil,CA,P0H 1K0,Ontario
702-9653489-0933811,Metcalfe,CA,K0A 2P0,Ontario
701-6083799-4369028,Toronto,CA,M4A0G5,Ontario
701-5948655-8944232,Innerkip,CA,N0J 1M0,Ontario
702-6474055-4301006,Guelph,CA,N1E 5J5,Ontario
701-5603856-0645027,Mirabel,CA,J7J 0K1,Quebec
701-7037508-9178628,Calgary,CA,T2N 0R1,Alberta
702-3023943-8809023,North Saanich,CA,V8L 5K7,British Columbia
702-6826540-7637012,Unionville,CA,L3R 1Z4,Ontario
701-8397588-4168262,Hamilton,CA,L9B 1R2,Ontario
701-9705669-9638600,Limoges,CA,K0A 2M0,Ontario
701-0646604-6381826,Yellowknife,CA,X1A2C7,Northwest Territories
702-5661957-7810608,Woodstock,CA,N4S 7W3,Ontario
702-4310765-1730658,Cloyne,CA,K0H 1K0,Ontario
701-8534587-9925819,Gore,CA,J0V 1K0,Quebec
701-9618021-9200215,Quebec,CA,G1P 3J3,Quebec
701-2418054-2387411,Abernethy,CA,S0A 0A0,Saskatchewan
702-5127868-8469040,Nisku,CA,T9E 0G6,Alberta
702-8610811-7626654,St Catharines,CA,L2S 2N3,Ontario
701-0309305-8624241,Fort McMurray,CA,T9K 1E9,AB
701-7257575-1045816,Hammonds Plains,CA,B4B 1X4,Nova Scotia
701-7382161-5815410,Oxford,CA,B0M 1P0,Nova Scotia
702-1587289-1842632,Port Au Choix,CA,A0K 4C0,Nl
701-0923881-6757816,Komarno,CA,R0C 1R0,Manitoba
702-4484595-9704243,Elmsdale,CA,B2S1C9,NS
702-7231452-2399419,Cranbrook,CA,V1C 5V7,British Columbia
701-5458601-8528264,Paradise valley,CA,T0B 3R0,Alberta
702-3639678-5956228,Alberta Beach,CA,T0E 0A0,Alberta
701-0872351-9222619,Guelph,CA,N1H 8N6,ON
701-0357752-8496202,Yellowknife,CA,X1A 3Y1,Northwest Territories
701-1295695-6969819,Scarborough,CA,M1M 3S5,ON
702-5362913-0595440,Arthur,CA,N0G 1A0,Ontario
701-6556099-3053008,Sudbury,CA,P3E 5P4,Ontario
702-1828273-4093059,Bathurst,CA,E2A 1B8,New Brunswick
702-0849046-0236224,Mont-Saint-Gregoire,CA,J0J 1K0,Quebec
701-4601512-5105812,Toronto,CA,M6N 2Z5,Ontario
702-1106378-9653866,Angus,CA,L0M 1B5,Ontario
702-6969828-0650612,Calgary,CA,T2X 0R7,Alberta
702-2792884-3948239,OTTAWA,CA,K2J 5N0,ON
702-6521113-7334603,Boileau,CA,J0V 1N0,Quebec
702-7024361-4621014,Gift Lake,CA,T0G 1B0,Alberta
701-6827031-6458640,Mississauga,CA,L5V 1M9,ON
702-7493744-5937837,Kamloops,CA,V2E 1M4,BC
701-8088835-8425869,Caledonia,CA,N3W 2K5,Ontario
702-6186011-2986647,Ingleside,CA,K0C 1M0,Ontario
702-1141211-2226655,Calgary,CA,T2P 4K9,Alberta
702-8290680-4549066,OSHAWA,CA,L1J 6G9,Ontario
702-1839929-1961007,Edmonton,CA,T5Z3E8,Alberta
701-2439517-3695406,Deep River,CA,K0J 1P0,Ontario
702-8405058-3477801,Port Rowan,CA,N0E 1M0,Ontario
701-0435267-5427451,Edmonton,CA,T5Z3E8,Alberta
702-3048169-6373044,Kebaowek,CA,J0Z 3R1,Quebec
701-8676242-4544222,Pointe-Claire,CA,H9R 4R8,Quebec
702-2477094-6938646,Quebec,CA,G3J 1S6,Quebec
702-3032026-9410647,Uxbridge,CA,L9P 0B3,Ontario
702-1562404-4103421,KINCARDINE,CA,N2Z 3B4,Ontario
701-5588510-5161064,Hastings,CA,K0L 1Y0,Ontario
701-7750257-6245019,Kingston,CA,K7M 6G1,Ontario
702-0963622-0377855,Laurier-station,CA,G0S 1N0,Quebec
702-5904787-3049009,Hinton,CA,T7V 1S8,Alberta
701-4473272-0636204,Ajax,CA,L1T 4G3,Ontario
701-1720570-3769065,Harcourt,CA,K0L 1X0,Ontario
701-4809704-6290604,Balmoral,CA,E8E 1C1,New Brunswick
702-5703796-0307405,Mallaig,CA,T0A 2K0,Alberta
702-8395025-5301826,Calgary,CA,T3G 3P2,Alberta
702-9578126-9354615,Ogema,CA,S0C1Y0,Saskatchewan
702-7795471-4376217,Trail,CA,V1R 4C5,British Columbia
701-0892071-1528230,winnipeg,CA,R2N 4N2,Manitoba
701-7795485-4221854,Mirabel,CA,J7J 0M8,Quebec
702-2085055-3063463,Gatineau,CA,J8R 3H2,Quebec
702-9912930-0256254,Devon,CA,T9G 0A1,Alberta
702-8349607-4093843,Merritt,CA,V1K 1G6,British Columbia
702-5703309-0529803,beaumont,CA,T4X1P3,Alberta
702-5333314-0008226,Waterloo,CA,N2T 2J7,Ontario
702-5586912-9511421,Calgary,CA,T2L 1Y3,Alberta
701-9607725-6305869,Kanata,CA,K2M 2K5,Ontario
701-4183148-1533053,Winnipeg,CA,R2G 2W4,Manitoba
702-1801424-9361017,Chibougamau,CA,G8P 1T4,QU
702-0531555-1985813,Val-des-Monts,CA,J8N 7H4,Quebec
702-5596646-2617040,BETHUNE,CA,S0G 0H0,SK
702-2748812-9824253,Fulda,CA,S0K1T0,Saskatchewan
702-2774360-2959417,North Bay,CA,P1B 8G4,Ontario
701-5260667-1193807,Yellowknife,CA,X1A0C6,Northwest Territories
701-0495981-9937009,Cochrane,CA,T4C0J1,Alberta
702-7257184-9347427,Fairview,CA,T0H1L0,Alberta
702-9812574-7265816,Dalhousie,CA,E8C 2P2,New Brunswick
701-2105225-8137011,Waterdown,CA,L0R 2H8,Ontario
701-8270808-6789010,Whitby,CA,L1N9R7,Ontario
701-5142820-6273006,Edmonton,CA,T6X 1G9,Alberta
702-8733477-7349861,Waterville,CA,B0P 1V0,Nova Scotia
702-4321741-4838652,Brampton,CA,L6P 2L2,ON
702-2095062-0780223,Almonte,CA,K0A 1A0,Ontario
702-2134739-3941839,mirabel,CA,J7N 1T4,quebec
701-7083035-0195464,Pointe-Claire,CA,H9R 4C2,Quebec
702-6859925-6645026,Lasalle,CA,H8R 3Y6,Quebec
701-2673676-8321067,Lumsden,CA,A0G 3E0,NL
702-2189713-3054603,Grande-Riviere,CA,G0C 1V0,Quebec
701-1524360-3437031,Fort Frances,CA,P9A 1K3,Ontario
701-3807595-7578650,Plamondon,CA,T0A 2T0,Alberta
702-9036431-5279426,Manitouwadge,CA,P0T 2C0,Ontario
702-6163042-4019409,The Pas,CA,R9A 1L5,Manitoba
701-6623899-6270655,Westbank,CA,V4T 2M5,British Columbia
701-6176243-6393824,Sainte-Anne-De-Beaupre,CA,G0A 3C0,Quebec
701-4235381-8441035,Drayton Valley,CA,T7A 1L3,Alberta
701-6884222-2671435,Pain Court,CA,N0P 1Z0,Ontario
702-9157897-7858655,Richmond,CA,J0B 2H0,Quebec
702-0945646-1284205,St-Stanislas,CA,G8L 7A7,QuÃ©bec
701-1390106-6774608,Antigonish,CA,B2G 2L4,Nova Scotia
701-5747287-3797010,Air Ronge,CA,S0J 3G0,Saskatchewan
702-9678645-0198608,Saint-Lazare-De-Bellechasse,CA,G0R 3J0,Quebec
701-4805886-2204209,STRATFORD,CA,N5A 4A0,ON
701-8022006-6985044,Saint-Georges,CA,G5Y 2X2,QuÃ©bec
701-4581070-1497067,Chilliwack,CA,V2P 7R3,British Columbia
702-9263986-2175436,Chilliwack,CA,V2P 6H5,BC
701-3406018-7404223,Bath,CA,K0H 1G0,Ontario
702-1192552-0697825,Medstead,CA,S0M 1W0,SK
701-7289526-9039463,Oakville,CA,L6J 0B2,Ontario
701-9986175-4747443,Dunnville,CA,N1A 2P2,Ontario
701-3111800-7065812,Kingsville,CA,N9Y 1J3,Ontario
702-1186399-9712258,Amos,CA,J9T 3A3,Quebec
702-4164820-8194636,Athabasca,CA,T9S 1B3,Alberta
701-9011010-8335437,Orangeville,CA,L9W 3M1,Ontario
702-6494724-0514632,Mission,CA,V2V 5E3,British Columbia
701-1873146-5733039,lunenburg,CA,B0J2C0,Nova Scotia
702-8555844-0585802,Grafton,CA,K0K 2G0,Ontario
701-5720707-5497869,Red Deer,CA,T4R 2T5,Alberta
701-9142794-8809812,LEAMINGTON,CA,N8H 3V8,Ontario
701-2549608-1441060,St. Albert,CA,T8N 6L2,Alberta
702-4663072-8748256,Rouyn-Noranda,CA,J0Z1Y0,QC
702-1705932-6720213,Killarney,CA,R0K1G0,Manitoba
701-6712092-9237001,longueuil,CA,J3Y 3X5,Quebec
702-1452170-0224229,Prince George,CA,V2N 5G3,British Columbia
702-5518094-2933014,Whitecourt,CA,T7S 1W7,Alberta
701-5116468-2116238,Iqaluit,CA,X0A 0H0,Nunavut
702-0740454-1960253,sexsmith,CA,T0H 3C0,Alberta
701-8397097-5972250,South nelson,CA,E1N 6C6,New Brunswick
702-3498011-3313813,Ingersoll,CA,N5C 3G8,ONTARIO
702-5071266-0481001,CALGARY,CA,T2Y 4S0,AB
702-7774336-2790650,Wheatley River,CA,C0A 1N0,Prince Edward Island
702-8002276-5719426,Guelph,CA,N1K 1E6,Ontario
701-3809662-9015416,Trail,CA,V1R 4C5,British Columbia
702-5161165-8869047,belle cote,CA,B0E 1C0,nova scotia
702-5404423-9080249,Drummondville,CA,J2C 7W9,Quebec
702-8646891-2837035,Thunder Bay,CA,P7K 1C7,Ontario
702-9560166-8066617,Saint-Alexandre-D'Iberville,CA,J0J 1S0,Quebec
701-0679186-4913800,Chalk River,CA,K0J 1J0,Ontario
702-9252929-0323462,Richibucto,CA,E4W 3V1,New Brunswick
701-2756775-7317805,Edmonton,CA,T5X 2P6,Alberta
702-0608468-4323449,Harrow,CA,N0R 1G0,ON
701-8063372-6985839,Drayton Valley,CA,T7A1S3,Alberta
701-9177423-6462606,Tweed,CA,K0K 3J0,Ontario
702-5930071-3077820,Winnipeg,CA,R2M 1N5,Manitoba
702-3657636-6964204,sudbury,CA,P3A6C1,Ontario
701-6778446-9487435,Toronto,CA,M8Z 2W2,Ontario
701-5906493-8001843,Lorrainville,CA,J0Z 2R0,Quebec
701-4472225-7651441,108 Mile Ranch Box 10189,CA,V0K 2Z0,British Columbia
701-1126424-2233069,Winnipeg,CA,R3J 1M3,MB
702-6643484-1750615,Rocky Mountain House,CA,T4T 1A4,Alberta
701-8137296-4456217,Delta,CA,K0E 1G0,ON
702-4388515-8672223,Hearst,CA,P0L 1N0,Ontario
702-9834678-6839409,Yellowknife,CA,X1A3A8,Northwest Territories
701-8825489-8964212,Cartier,CA,R4K 1A4,Manitoba
702-1496670-8638611,Toronto,CA,M5T 2L4,Ontario
701-2151724-6957058,Strathmore,CA,T1P 1Y1,Alberta
702-9223163-4260214,North York,CA,M3A 3L7,Ontario
702-7936146-2904210,Saint-Colomban,CA,J5K 1S1,Quebec
702-4780003-1877012,Brantford,CA,N3S 0C6,Ontario
702-4114313-7051409,Calgary,CA,T2X 0T9,Alberta
701-2447106-8069015,Abbotsford,CA,V4X 1A8,BC
701-6667879-8857810,Monkland,CA,K0C 1V0,Ontario
701-5287057-7291425,Regina,CA,S4N0G8,SK
702-8558068-4752240,Calgary,CA,T2K 3S3,Alberta
701-3706075-5578656,Calgary,CA,T3Z 0A7,Alberta
702-0719141-5667430,Charlottetown,CA,C1E 1W8,Prince Edward Island
702-1005417-8906655,Lakefield,CA,K0L 2H0,Ontario
701-7268971-0621028,ashton,CA,K0A 1B0,Ontario
701-5292811-4173836,Matheson,CA,P0K 1N0,Ontario
701-2131144-0621861,Winnipeg,CA,R3P 2C2,Manitoba
702-9716570-5472231,Carp,CA,K0A 1L0,ON
702-7775438-2557848,Markham,CA,L6B 0L8,Ontario
701-2196004-8201851,Millertown,CA,A0H1V0,Newfoundland
702-8953957-5752207,Dunmore,CA,T1B 0J5,Alberta
701-4545271-5260220,Taber,CA,T1G 2C8,Alberta
702-3805741-0516259,Brampton,CA,L7A 4N3,Ontario
702-4389863-2809030,CAMROSE,CA,T4V 0S0,AB
701-8783181-6379434,Peace River,CA,T8S 1N3,Alberta
701-1658348-5751451,Massey Drive,CA,A2H 7T7,Newfoundland
702-3422353-8808268,canton de stanstead,CA,J1X 3W4,Quebec
702-0783621-8257868,Sudbury,CA,P3E 5M4,Ontario
701-8356416-3123406,Qualicum Beach,CA,V9K 1H8,BC
701-4311884-6404202,Vegreville,CA,T9C 1B3,Alberta
701-0515408-5525864,Calgary,CA,T2N 3V6,Alberta
701-2242581-8683401,jonquiÃ¨re,CA,G7Z 1T3,quÃ©bec
702-8923670-6955413,Compton,CA,J0B 1L0,Quebec
702-2652028-5361005,Cowichan bay,CA,V0R 1N2,British Columbia
701-2734221-2143427,Petawawa,CA,K8H 0C4,Ontario
701-1247295-2745052,CALGARY,CA,T3H 3C0,AB
701-1817570-4284206,Toronto,CA,M3A 1G3,Ontario
701-2011131-4463435,Saskatoon,CA,S7J 3W5,SK
701-1422590-0194665,Dartmouth,CA,B2X 1P4,Nova Scotia
701-7435642-8133054,Calgary,CA,T2Z 0N8,Alberta
701-0696658-3299401,Calgary,CA,T2Z 4R6,Alberta
702-4778079-8643436,Guelph,CA,N1L 1J2,Ontario
701-4537242-1619468,Edmonton,CA,T5B 0E4,Alberta
701-3816140-8152238,Montreal,CA,H2T 2R8,Quebec
701-9472837-7564262,Saint-Victor,CA,G0M 2B0,Quebec
701-2074902-2876268,Loretto,CA,L0G 1L0,Ontario
702-9705347-1275411,North Vancouver,CA,V7J 3H4,BC
702-0706497-9720264,Parksville,CA,V9P 2G4,British Columbia
701-1106773-5369830,Kelowna,CA,V1X 4M8,BC
701-2293466-1632202,Morinville,CA,T8R 0B6,Alberta
702-6586895-2941032,Cumberland,CA,V0R 1S0,British Columbia
701-5820788-3609867,HAMILTON,CA,L8P 1A0,ON
702-5297134-6249834,Chilliwack,CA,V2R 3Y2,British Columbia
701-7126939-9085009,Bonnyville,CA,T9N 2H8,Alberta
701-5428035-4605835,Garibaldi Highlands,CA,V0N 1T0,British Columbia
702-9024814-9145059,Luskville,CA,J0X 2G0,Quebec
702-6385894-9250656,Olds,CA,T4H 0A2,Alberta
701-4654574-4321041,Chilliwack,CA,V2R 0T4,British Columbia
701-4447726-0406657,Clarington,CA,L1C 0Z8,Ontario
702-7856886-5975468,Quesnel,CA,V2J 4Z3,BC
701-2095146-5813850,Verdun,CA,H4H 2P1,Quebec
702-0046106-4068227,Saint-ThÃ©ophile,CA,G0M 2A0,QuÃ©bec
702-5301991-0563409,Whitecourt,CA,T7S 0A2,Alberta
701-9598629-3428230,Edmonton,CA,T5J 4A1,Alberta
702-3278105-7857817,Tottenham,CA,L0G 1W0,ON
701-2039889-2901041,Lasalle,CA,N9H 1N3,Ontario
701-9151293-1989029,Edmonton,CA,T5N 2J5,Alberta
702-9666806-2233827,New Westminster,CA,V3L 2X2,British Columbia
702-8339398-0775452,Brantford,CA,N3S 7H6,On
701-8345597-5657060,Laurier-Station,CA,G0S 1N0,Quebec
701-0725398-8391421,Scarborough,CA,M1X 2B6,Ontario
701-7267558-0502631,Meadow Lake,CA,S9X 1B3,Saskatchewan
702-5722416-9997801,La Tuque,CA,G9X 3M2,Quebec
702-5864142-3221041,Laval,CA,H7C 2S8,Quebec
702-0640526-3958626,Woodstock,CA,N4T 0H6,Ontario
702-0713180-2140239,guelph,CA,N1G 3S3,ON
701-8572167-3065054,Gilbert Plains,CA,R0L 0X0,Manitoba
701-0819483-1799437,Smoky lake,CA,T0A3C0,Alberta
701-6108234-6013817,Lantzville,CA,V0R 2H0,British Columbia
702-0554284-1545849,Rimouski,CA,G0L 1B0,QC
701-8752695-2395452,Trail,CA,V1R 2L4,British Columbia
701-9985047-9537832,Orleans,CA,K1C 2T2,ON
702-5368709-2944229,Edam,CA,S0M 0V0,Saskatchewan
702-1378398-9276220,Embrun,CA,K0A1W0,Ontario
701-4057369-4629832,Stony Plain,CA,T7Z2X5,Alberta
702-2752913-0603442,Bonnyville,CA,T9N 2H8,Alberta
701-4940400-4010607,Canton-De-Hatley,CA,J0B 2C0,Quebec
701-4546024-1113869,Kelowna,CA,V1Y 2A3,British Columbia
701-1359926-0989012,Trail,CA,V1R 3L8,British Columbia
702-9633394-0009820,Garibaldi Highlands,CA,V8B 0G1,British Columbia
702-2170313-1614634,Edmonton,CA,T5A 0W7,Alberta
702-3210484-2993817,Mirabel,CA,J7J 2H3,Quebec
702-9746131-1639469,Langley,CA,V3A 6K8,British Columbia
702-5441343-8066627,Calgary,CA,T2G 0H7,Alberta
701-2319607-9100244,Cumberland,CA,V0R 1S0,British Columbia
701-0134088-8889849,Oxford Station,CA,K0G 1T0,Ontario
701-2950925-3970605,Windsor,CA,N8P 1T7,Ontario
701-8227361-1289863,Barrie,CA,L4M 0B8,Ontario
702-7193269-0511446,Mattawa,CA,P0H 1V0,ON
702-5301580-8690615,Toronto,CA,M4A 2G7,Ontario
701-3763805-9611456,Winnipeg,CA,R3T 3J1,Manitoba
702-5506416-8652268,thunder bay,CA,P7B 6L2,Ontario
701-5580491-1560222,Qualicum Beach,CA,V9K 1V6,BC
702-4624326-2301816,Brisco,CA,V0A 1B0,BC
702-1785068-3020205,Shediac,CA,E4P 1P4,New Brunswick
701-0302745-2179420,Winfield,CA,V4V 1T6,British Columbia
702-4503285-9435456,Calgary,CA,T2L 0S7,Alberta
702-5832549-4797007,Langdon,CA,T0J 1X0,AB
702-8711129-0062627,MONT - ROYAL,CA,H3R 2K0,QC
701-4884203-6163401,Calgary,CA,T3A 5V9,Alberta
701-7279636-4830656,Nelson,CA,V1L 6M2,Bc
701-3088809-4909832,Ottawa,CA,K1Z 7P6,Ontario
702-6709352-6145027,L'Islet,CA,G0R 2C0,Quebec
701-3221550-8472256,Dundee,CA,J0S 1L0,Quebec
701-2814056-8249834,Saint-Sauveur,CA,J0R 1R7,Quebec
701-8558304-0550662,Mono,CA,L9W 6G1,Ontario
702-7770490-5722652,Shakespeare,CA,N0B 2P0,Ontario
702-7251614-2187453,St-juste-du-lac,CA,G0L3R0,Quebec
701-9710395-0273017,Etobicoke,CA,M9B 5J8,Ontario
701-6820934-7700208,Thornhill,CA,L4J 8S7,Ontario
701-6620463-2908231,Taber,CA,T1G 1J2,Alberta
702-9751684-3758604,L'Assomption,CA,J5W 2V1,Quebec
701-0254072-8356207,Waterloo,CA,N2T 1X9,Ontario
702-7704431-7963421,Rocky Mountain House,CA,T4T 2A2,Alberta
701-5458132-3010611,Saint-Jean-sur-Richelieu,CA,J2W 1E9,QC
701-5689677-2833864,Sutton,CA,J0E 2K0,QuÃ©bec
702-6940278-2621852,Calgary,CA,T1Y 4N8,Alberta
702-4954815-5633013,Erin,CA,N0B 1T0,ON
701-2441059-3901862,Lake Country,CA,V4V 2R1,British Columbia
702-5176914-0454612,Berthierville,CA,J0K 1A0,Quebec
702-6304606-2654643,St. Francois Xavier.,CA,R4L 1B2,Manitoba
702-0956312-0867456,Richmond,CA,V7E 5N9,British Columbia
702-3767629-6042657,Victoria,CA,V9B 3W5,British Columbia
702-3036936-5741036,PARADISE,CA,A1L 1P0,NL
702-5945914-1617031,Port Clements,CA,V0T 1R0,British Columbia
702-8415011-7877802,Stony Plain,CA,T7Z 1L5,Alberta
702-7284542-2660246,Kapuskasing,CA,P5N 1M7,ON
702-8049678-0181822,Saint-Bruno,CA,J3V 6E4,QC
701-1121041-8054641,Saint-Laurent,CA,H4R 2T6,Quebec
702-8887144-7541014,Aurora,CA,L4G 0G8,Ontario
701-8657421-9891463,White Rock,CA,V4B 2P7,British Columbia
702-2949359-4272209,Cochrane,CA,T4C 1T7,Alberta
701-6879655-1193812,Meadow Lake,CA,S9X 1V1,Saskatchewan
702-5664639-6462625,Red Deer,CA,T4P 3P4,Alberta
702-4867109-6753840,Cupar,CA,S0G 0Y0,SK
701-3453757-4121042,Mississauga,CA,L5J 1V3,ON
702-3752747-1911424,Richmond,CA,K0A 2Z0,Ontario
701-6898630-6435464,Ayr,CA,N0B 1E0,Ontario
701-5852593-2997023,Winnipeg,CA,R3C 3Z1,Manitoba
701-7929726-2696265,Burnaby,CA,V5C 3C7,BC
702-6716036-3700225,Port McNeill,CA,V0N 2R0,BC
702-4856326-3398642,Airdrie,CA,T4B 1T4,Alberta
702-0096845-3731426,Sainte-Agathe-Des-Monts,CA,J8C 2R4,Quebec
702-5761397-1528231,Tumbler Ridge,CA,V0C 2W0,British Columbia
702-4494586-3599462,Aurora,CA,L4G7V6,Ontario
702-4901286-3460226,Calgary,CA,T2E 7A4,Alberta
701-7714480-9371465,Victoria,CA,V8S 4V5,British Columbia
701-5220427-3203456,Feversham,CA,N0C 1C0,ON
701-9577704-3023458,St. Albert,CA,T8N 6S2,Alberta
701-4094531-3203432,North Bay,CA,P1A 2P2,Ontario
701-5651197-5381810,Edmonton,CA,T5A 4Y4,Alberta
702-3216371-0509818,Calgary,CA,T3L 2Z9,AB
701-6143282-6603414,Waasis,CA,E3B 9E5,New Brunswick
702-4713917-3468268,Saint-Georges,CA,G6A 1K5,Quebec
702-8559876-2635420,KELOWNA,CA,V1X 3N1,British Columbia
701-6596434-7750604,Emsdale,CA,P0A 1J0,Ontario
701-4429120-2037027,Victoria,CA,V8Z 7Y1,BC
701-1705480-3435469,Toronto,CA,M6C 1Y6,Ontario
701-2664651-8509058,Hearst,CA,P0L 1N0,Ontario
702-7924568-0525044,St-Eustache,CA,J7P 5V5,QuÃ©bec
702-3282196-3518668,Delhi,CA,N4B 2W6,Ontario
701-8513144-2801062,Vernon,CA,V1B 3Z3,British Columbia
702-9653655-1829805,WINDSOR,CA,N8S1X3,ONTARIO
702-9174458-0781834,Neuville,CA,G0A 2R0,Quebec
701-7901424-7017062,Edmonton,CA,T5Z 2Z5,Alberta
702-4187340-7010616,Calgary,CA,T3H 2T8,Alberta
702-0145493-6753833,Piedmont,CA,J0R 1K0,Quebec
702-9901486-2317819,Laval,CA,H7C 2G6,Quebec
702-2835481-7065862,Barrie,CA,L4N 5C8,Ontario
701-2516029-0195407,Ajax,CA,L1T 1X2,Ontario
702-1955578-7397816,Toronto,CA,M1X 1W9,ON
701-2438655-7621021,Burnaby,CA,V5J 2X4,British Columbia
701-8264294-9115459,north vancouver,CA,V7L2H3,british columbia
701-5259691-9021038,Alban,CA,P0M 1A0,Ontario
701-6282527-5133867,Shelburne,CA,L9V 3C8,Ontario
702-2603170-0276252,Edmonton,CA,T6A 0S9,Alberta
701-3522351-4062653,Saint-Bruno,CA,J3V 3B4,Quebec
702-6676559-9822667,Drummondville,CA,J2B 1E5,QC
702-0013389-8817858,Grand Falls-Windsor,CA,A2A 1S8,Newfoundland
701-0922282-4990610,Ajax,CA,L1Z 0S6,Ontario
701-5905875-9109024,Toronto,CA,M4S 2N5,Ontario
702-9138311-3981864,Mississauga,CA,L4Y 3C2,Ontario
701-7151506-1724214,Edmonton,CA,T6W 1K1,Alberta
702-9216578-8176256,Ingersoll,CA,N5C 3Y2,Ontario
702-9516648-0213003,Richmond Hill,CA,L4C 2W5,ON
702-6942530-7553020,VerchÃ¨res,CA,J0L2R0,QuÃ©bec
702-3484011-5337848,Mascouche,CA,J7K 0T8,Quebec
702-7372825-6184216,Edmonton,CA,T5A 0W7,Alberta
701-5696200-3805864,Kingsville,CA,N9Y 2E6,Ontario
701-0435169-8477865,Toronto,CA,M2K 2X8,ON
702-2135300-3112242,London,CA,N5Y 6M4,Ontario
701-3198407-3540223,St-Jerome,CA,J7Y 5H3,Quebec
701-6931942-6740227,Edmonton,CA,T5T 6K4,Alberta
701-1827844-2865016,Montreal,CA,H1T 1Y7,Quebec
701-4423503-9969801,Surrey,CA,V4P 1C6,BC
701-5427011-7195452,London,CA,N5W 5B8,Ontario
701-7427961-1801822,Coquitlam,CA,V3E 2W4,British Columbia
701-5760989-1609825,Boisbriand,CA,J7G 3G7,Quebec
702-2343089-1447451,Calgary,CA,T3H 3J9,Alberta
701-9196948-4665036,Ajax,CA,L1S 0E4,Ontario
702-0770373-0820213,North Vancouver,CA,V7R 2K5,British Columbia
702-9996924-5453855,Belleville,CA,K8N 4B2,Ontario
702-1134706-3397034,Edmonton,CA,T6X2N8,Alberta
702-7475489-1919426,Unionville,CA,L3R 8W6,Ontario
702-7026506-2373855,Penetanguishene,CA,L9M 1N8,Ontario
702-5900485-5032220,Regina,CA,S4S 5Y4,SK
701-4298121-5667467,Candiac,CA,J5R 3N9,Quebec
702-2502971-7963449,Delson,CA,J5B 1M7,QC
702-8293849-6785829,Brampton,CA,L6Z4T5,ON
702-3643281-6729001,Toronto,CA,M5V 3Z7,Ontario
701-0979029-6453869,Toronto,CA,M6K 3P9,ON
702-0009975-0504269,Mississauga,CA,L5N 8E6,Ontario
701-7226131-0854601,Hearst,CA,P0L 1N0,Ontario
701-7730262-4641814,Saint-Hyacinthe,CA,J2S8N1,Quebec
701-7290012-7533044,Nepean,CA,K2R 1A5,ON
701-1061416-4925834,Whitehorse,CA,Y1A 0J4,Yukon
702-1786566-0042639,Winkler,CA,R6W 4B1,Manitoba
701-6308716-4881846,Richmond Hill,CA,L4E 4C6,Ontario
702-9964763-6301848,Elmira,CA,N3B3H9,ON
701-5888910-4395420,Camrose,CA,T4V 1A4,Alberta
702-4760564-8313833,innisfil,CA,L9S 1Y2,ON
701-5013115-1867446,North Vancouver,CA,V7R 2W7,BC
702-7366890-1569066,Vaughan,CA,L4H 2W1,Ontario
702-3000755-6083461,Lac-Beauport,CA,G3B 1T8,Quebec
702-1331423-9936218,Etobicoke,CA,M9C 4Z3,ON
701-5834575-3564225,Otterburn Park,CA,J3H 4B4,Quebec
701-9488581-0125057,Fox Creek,CA,T0H 1P0,Alberta
702-0245085-7966623,EAST YORK,CA,M4J3V9,ON
702-2069261-8594655,Kirkland Lake,CA,P2N 2L6,Ontario
701-2192808-1013837,Rigaud,CA,J0P 1P0,QuÃ©bec
702-2029678-7928223,Senneville,CA,H9X 1T4,Quebec
702-1028423-6000253,Chambly,CA,J3L 0G9,Quebec
